KUIPER-00071            
1 64818U 25151C   25245.58336806 -.01711122  00000+0 -11325+0 0  9995
2 64818  51.8912  57.3209 0005423 322.0321 268.6017 15.10135879  5328
KUIPER-00072            
1 64819U 25151D   25245.49103270  .00057936  00000+0  16069-2 0  9999
2 64819  51.8768  55.0734 0005897 323.7686  36.2901 15.36356104  7409
KUIPER-00073            
1 64820U 25151E   25245.58336806 -.01850577  00000+0 -11760+0 0  9999
2 64820  51.8921  57.3845 0010493 346.1595 295.4190 15.11794220  5906
KUIPER-00074            
1 64821U 25151F   25244.77183441  .00061390  00000+0  17031-2 0  9999
2 64821  51.8784  58.5045 0005344 320.1213  39.9380 15.36325086  7290
KUIPER-00075            
1 64822U 25151G   25245.21349495  .00078259  00000+0  21047-2 0  9997
2 64822  51.8788  56.2297 0005261 312.7553  47.2991 15.37178048  7364
KUIPER-00076            
1 64823U 25151H   25245.58336806 -.00731028  00000+0 -23369-1 0  9990
2 64823  51.8786  54.6519 0005897 319.5095 182.8907 15.34461076  4298
KUIPER-00077            
1 64824U 25151J   25245.58336806  .00016828  00000+0  73988-3 0  9997
2 64824  51.8864  55.4044 0006131 315.9629 200.4322 15.21980494  5906
KUIPER-00078            
1 64825U 25151K   25245.58336806 -.00853453  00000+0 -32216-1 0  9990
2 64825  51.8811  54.9085 0005791 344.3183  42.3557 15.29163163  5446
